COSMOS 2433 (720)       
1 32275C 07052A   22280.99979167  .00000000  00000-0  00000-0 0  2807
2 32275  66.0754   0.9380 0004318 227.1674 335.4750  2.13103902    13
COSMOS 2432 (719)       
1 32276C 07052B   22280.99979167  .00000000  00000-0  00000-0 0  2808
2 32276  66.0892   1.0409 0008732 316.8280 193.8136  2.13102972    14
COSMOS 2434 (721)       
1 32393C 07065A   22280.99979167  .00000000  00000-0  00000-0 0  2802
2 32393  64.3699 237.5849 0000914  80.1869  12.4072  2.13103007    17
COSMOS 2436 (723)       
1 32395C 07065C   22280.99979167  .00000000  00000-0  00000-0 0  2804
2 32395  64.3787 237.6431 0015620 354.2716 234.1177  2.13102855    10
COSMOS 2456 (730)       
1 36111C 09070A   22280.99979167 -.00000000  00000-0  00000-0 0  2803
2 36111  64.3817 117.1892 0001518 342.7334 273.8876  2.13099255    11
COSMOS 2457 (733)       
1 36112C 09070B   22280.99979167 -.00000000  00000-0  00000-0 0  2804
2 36112  64.3651 117.0623 0006601 149.0227 235.7770  2.13101366    13
COSMOS 2460 (732)       
1 36402C 10007C   22280.99979167  .00000000  00000-0  00000-0 0  2807
2 36402  65.9451 359.7083 0001648 201.1073 168.3192  2.13106212    14
COSMOS 2476 (744)       
1 37867C 11064A   22280.99979167 -.00000000  00000-0  00000-0 0  2808
2 37867  64.6683 118.5892 0020470 230.5214 292.5455  2.13101775    10
COSMOS 2477 (745)       
1 37868C 11064B   22280.99979167 -.00000000  00000-0  00000-0 0  2809
2 37868  64.6759 118.6552 0017827 230.6273 110.5049  2.13101625    19
COSMOS 2475 (743)       
1 37869C 11064C   22280.99979167 -.00000000  00000-0  00000-0 0  2800
2 37869  64.6831 118.6644 0021439 250.7137  48.5686  2.13101979    18
COSMOS 2485 (747)       
1 39155C 13019A   22280.99979167 -.00000000  00000-0  00000-0 0  2802
2 39155  64.8312 119.0418 0021097 226.3058 341.1709  2.13101915    17
COSMOS 2492 (754)       
1 39620C 14012A   22280.99979167  .00000000  00000-0  00000-0 0  2802
2 39620  65.8309 359.3739 0012009 314.6494 287.1832  2.13102959    19
COSMOS 2500 (755)       
1 40001C 14032A   22280.99979167  .00000000  00000-0  00000-0 0  2809
2 40001  65.7701 359.2266 0008244 202.7259 257.4486  2.13102030    10
COSMOS 2501 (702K)      
1 40315C 14075A   22280.99979167  .00000000  00000-0  00000-0 0  2804
2 40315  63.6759 237.2301 0018749 211.5046  57.2272  2.13101418    14
COSMOS 2514 (751)       
1 41330C 16008A   22280.99979167  .00000000  00000-0  00000-0 0  2800
2 41330  65.5696 358.8905 0011965 211.2618  72.9519  2.13102503    12
COSMOS 2547 (705K)      
1 46805C 20075A   22280.99979167  .00000000  00000-0  00000-0 0  2801
2 46805  64.6479 237.6654 0008004 247.5881 294.6733  2.13102889    10
COSMOS 2522 (752)       
1 42939C 17055A   22280.99979167  .00000000  00000-0  00000-0 0  2809
2 42939  64.1358 237.9660 0009050 245.9587 158.2284  2.13102043    10
COSMOS 2527 (756)       
1 43508C 18053A   22280.99979167 -.00000000  00000-0  00000-0 0  2802
2 43508  64.9939 119.0654 0007310 213.6139 222.6389  2.13102440    14
COSMOS 2529 (757)       
1 43687C 18086A   22280.99979167  .00000000  00000-0  00000-0 0  2805
2 43687  64.3509 238.3125 0010989 266.2133  93.4934  2.13102141    19
COSMOS 2534 (758)       
1 44299C 19030A   22280.99979167  .00000000  00000-0  00000-0 0  2805
2 44299  64.4229 238.2077 0013532 284.9555 209.2287  2.13101714    19
COSMOS 2544 (759)       
1 44850C 19088A   22280.99979167 -.00000000  00000-0  00000-0 0  2802
2 44850  64.9793 118.9151 0010583 251.0519 228.5735  2.13102209    10
COSMOS 2545 (760)       
1 45358C 20018A   22280.99979167  .00000000  00000-0  00000-0 0  2800
2 45358  64.9083 359.4062 0010472 240.5774  88.3830  2.13102480    11
